{"type": "FeatureCollection", "features": [ {"type": "Feature", "properties": {"norad_id": 31618, "name": "FENGYUN 1C DEB", "group": "fengyun-1c-debris", "lat": 37.72985953479404, "lon": -42.401252828561205, "alt_km": 932.0985563739578, "timestamp": "2025-12-13T05:42:57.843102+00:00", "meta": {"OBJECT_NAME": "FENGYUN 1C DEB", "OBJECT_ID": "1999-025BZY", "EPOCH": "2025-12-07T15:33:01.488960", "MEAN_MOTION": 14.21009291, "ECCENTRICITY": 0.01572194, "INCLINATION": 99.4425, "RA_OF_ASC_NODE": 124.228, "ARG_OF_PERICENTER": 340.4885, "MEAN_ANOMALY": 19.0314, "EPHEMERIS_TYPE": 0, "CLASSIFICATION_TYPE": "U", "NORAD_CAT_ID": 31618, "ELEMENT_SET_NO": 999, "REV_AT_EPOCH": 70192, "BSTAR": 0.00047528685, "MEAN_MOTION_DOT": 1.116e-05, "MEAN_MOTION_DDOT": 0}, "tle": {"line1": "1 31618U 99025BZY 25341.64793390  .00001116  00000+0  47529-3 0  9998", "line2": "2 31618  99.4425 124.2280 0157219 340.4885  19.0314 14.21009291701926"}}, "geometry": {"type": "Point", "coordinates": [-42.401252828561205, 37.72985953479404]}}, {"type": "Feature", "properties": {"norad_id": 31619, "name": "FENGYUN 1C DEB", "group": "fengyun-1c-debris", "lat": -16.245492998926913, "lon": -2.795278086732079, "alt_km": 623.7994484117844, "timestamp": "2025-12-13T05:42:57.843113+00:00", "meta": {"OBJECT_NAME": "FENGYUN 1C DEB", "OBJECT_ID": "1999-025BZZ", "EPOCH": "2025-12-12T06:11:37.215168", "MEAN_MOTION": 14.85437843, "ECCENTRICITY": 0.00957731, "INCLINATION": 99.0726, "RA_OF_ASC_NODE": 178.7576, "ARG_OF_PERICENTER": 296.1372, "MEAN_ANOMALY": 63.0011, "EPHEMERIS_TYPE": 0, "CLASSIFICATION_TYPE": "U", "NORAD_CAT_ID": 31619, "ELEMENT_SET_NO": 999, "REV_AT_EPOCH": 63481, "BSTAR": 0.0071850689, "MEAN_MOTION_DOT": 0.00067793, "MEAN_MOTION_DDOT": 0}, "tle": {"line1": "1 31619U 99025BZZ 25346.25806962  .00067793  00000+0  71851-2 0  9998", "line2": "2 31619  99.0726 178.7576 0095773 296.1372  63.0011 14.85437843634817"}}, "geometry": {"type": "Point", "coordinates": [-2.795278086732079, -16.245492998926913]}}, {"type": "Feature", "properties": {"norad_id": 31620, "name": "FENGYUN 1C DEB", "group": "fengyun-1c-debris", "lat": 81.06432932690834, "lon": -24.359473990520094, "alt_km": 750.2012454163323, "timestamp": "2025-12-13T05:42:57.843123+00:00", "meta": {"OBJECT_NAME": "FENGYUN 1C DEB", "OBJECT_ID": "1999-025CAA", "EPOCH": "2025-12-07T23:58:44.073408", "MEAN_MOTION": 14.37123121, "ECCENTRICITY": 0.00207062, "INCLINATION": 98.8866, "RA_OF_ASC_NODE": 65.9275, "ARG_OF_PERICENTER": 59.0655, "MEAN_ANOMALY": 301.2562, "EPHEMERIS_TYPE": 0, "CLASSIFICATION_TYPE": "U", "NORAD_CAT_ID": 31620, "ELEMENT_SET_NO": 999, "REV_AT_EPOCH": 65776, "BSTAR": 0.0029103432, "MEAN_MOTION_DOT": 8.633e-05, "MEAN_MOTION_DDOT": 0}, "tle": {"line1": "1 31620U 99025CAA 25341.99912122  .00008633  00000+0  29103-2 0  9993", "line2": "2 31620  98.8866  65.9275 0020706  59.0655 301.2562 14.37123121657763"}}, "geometry": {"type": "Point", "coordinates": [-24.359473990520094, 81.06432932690834]}}, {"type": "Feature", "properties": {"norad_id": 31622, "name": "FENGYUN 1C DEB", "group": "fengyun-1c-debris", "lat": 73.48276256568533, "lon": 50.46482532226406, "alt_km": 761.5807920475718, "timestamp": "2025-12-13T05:42:57.843134+00:00", "meta": {"OBJECT_NAME": "FENGYUN 1C DEB", "OBJECT_ID": "1999-025CAC", "EPOCH": "2025-12-10T17:55:24.331296", "MEAN_MOTION": 14.37145671, "ECCENTRICITY": 0.00149837, "INCLINATION": 98.8158, "RA_OF_ASC_NODE": 79.4695, "ARG_OF_PERICENTER": 348.7081, "MEAN_ANOMALY": 164.6667, "EPHEMERIS_TYPE": 0, "CLASSIFICATION_TYPE": "U", "NORAD_CAT_ID": 31622, "ELEMENT_SET_NO": 999, "REV_AT_EPOCH": 95743, "BSTAR": 0.0031007513, "MEAN_MOTION_DOT": 9.196e-05, "MEAN_MOTION_DDOT": 0}, "tle": {"line1": "1 31622U 99025CAC 25344.74680939  .00009196  00000+0  31008-2 0  9991", "line2": "2 31622  98.8158  79.4695 0014983 348.7081 164.6667 14.37145671957434"}}, "geometry": {"type": "Point", "coordinates": [50.46482532226406, 73.48276256568533]}}, {"type": "Feature", "properties": {"norad_id": 31623, "name": "FENGYUN 1C DEB", "group": "fengyun-1c-debris", "lat": -82.36492578115518, "lon": -71.45036286468863, "alt_km": 971.11779802193, "timestamp": "2025-12-13T05:42:57.843144+00:00", "meta": {"OBJECT_NAME": "FENGYUN 1C DEB", "OBJECT_ID": "1999-025CAD", "EPOCH": "2025-12-02T20:02:22.350624", "MEAN_MOTION": 13.82580933, "ECCENTRICITY": 0.01951152, "INCLINATION": 97.6304, "RA_OF_ASC_NODE": 190.283, "ARG_OF_PERICENTER": 33.7651, "MEAN_ANOMALY": 327.5758, "EPHEMERIS_TYPE": 0, "CLASSIFICATION_TYPE": "U", "NORAD_CAT_ID": 31623, "ELEMENT_SET_NO": 999, "REV_AT_EPOCH": 57783, "BSTAR": 0.00047153491, "MEAN_MOTION_DOT": 5.61e-06, "MEAN_MOTION_DDOT": 0}, "tle": {"line1": "1 31623U 99025CAD 25336.83498091  .00000561  00000+0  47153-3 0  9995", "line2": "2 31623  97.6304 190.2830 0195115  33.7651 327.5758 13.82580933577835"}}, "geometry": {"type": "Point", "coordinates": [-71.45036286468863, -82.36492578115518]}}, {"type": "Feature", "properties": {"norad_id": 31625, "name": "FENGYUN 1C DEB", "group": "fengyun-1c-debris", "lat": 81.17676874414994, "lon": -19.6491502973306, "alt_km": 673.8474776798994, "timestamp": "2025-12-13T05:42:57.843157+00:00", "meta": {"OBJECT_NAME": "FENGYUN 1C DEB", "OBJECT_ID": "1999-025CAF", "EPOCH": "2025-12-11T17:42:25.562304", "MEAN_MOTION": 14.55396175, "ECCENTRICITY": 0.01493809, "INCLINATION": 98.8061, "RA_OF_ASC_NODE": 71.7082, "ARG_OF_PERICENTER": 18.8228, "MEAN_ANOMALY": 133.4296, "EPHEMERIS_TYPE": 0, "CLASSIFICATION_TYPE": "U", "NORAD_CAT_ID": 31625, "ELEMENT_SET_NO": 999, "REV_AT_EPOCH": 98378, "BSTAR": 0.00022249214, "MEAN_MOTION_DOT": 1.063e-05, "MEAN_MOTION_DDOT": 0}, "tle": {"line1": "1 31625U 99025CAF 25345.73779586  .00001063  00000+0  22249-3 0  9994", "line2": "2 31625  98.8061  71.7082 0149380  18.8228 133.4296 14.55396175983789"}}, "geometry": {"type": "Point", "coordinates": [-19.6491502973306, 81.17676874414994]}}, {"type": "Feature", "properties": {"norad_id": 31627, "name": "FENGYUN 1C DEB", "group": "fengyun-1c-debris", "lat": -71.7465369609113, "lon": 62.17835503797268, "alt_km": 806.2113083664681, "timestamp": "2025-12-13T05:42:57.843168+00:00", "meta": {"OBJECT_NAME": "FENGYUN 1C DEB", "OBJECT_ID": "1999-025CAH", "EPOCH": "2025-11-26T09:13:22.975680", "MEAN_MOTION": 14.35408996, "ECCENTRICITY": 0.00515931, "INCLINATION": 98.5313, "RA_OF_ASC_NODE": 18.4415, "ARG_OF_PERICENTER": 201.9005, "MEAN_ANOMALY": 157.9975, "EPHEMERIS_TYPE": 0, "CLASSIFICATION_TYPE": "U", "NORAD_CAT_ID": 31627, "ELEMENT_SET_NO": 999, "REV_AT_EPOCH": 64532, "BSTAR": 0.0013473839, "MEAN_MOTION_DOT": 3.885e-05, "MEAN_MOTION_DDOT": 0}, "tle": {"line1": "1 31627U 99025CAH 25330.38429370  .00003885  00000+0  13474-2 0  9997", "line2": "2 31627  98.5313  18.4415 0051593 201.9005 157.9975 14.35408996645325"}}, "geometry": {"type": "Point", "coordinates": [62.17835503797268, -71.7465369609113]}}, {"type": "Feature", "properties": {"norad_id": 31628, "name": "FENGYUN 1C DEB", "group": "fengyun-1c-debris", "lat": 18.761975296271583, "lon": 26.462135699845856, "alt_km": 873.3618272672593, "timestamp": "2025-12-13T05:42:57.843178+00:00", "meta": {"OBJECT_NAME": "FENGYUN 1C DEB", "OBJECT_ID": "1999-025CAJ", "EPOCH": "2025-12-11T07:54:48.314304", "MEAN_MOTION": 13.86824838, "ECCENTRICITY": 0.01689763, "INCLINATION": 102.2698, "RA_OF_ASC_NODE": 199.7269, "ARG_OF_PERICENTER": 223.5852, "MEAN_ANOMALY": 135.1839, "EPHEMERIS_TYPE": 0, "CLASSIFICATION_TYPE": "U", "NORAD_CAT_ID": 31628, "ELEMENT_SET_NO": 999, "REV_AT_EPOCH": 93280, "BSTAR": 0.0035626091, "MEAN_MOTION_DOT": 4.587e-05, "MEAN_MOTION_DDOT": 0}, "tle": {"line1": "1 31628U 99025CAJ 25345.32972586  .00004587  00000+0  35626-2 0  9993", "line2": "2 31628 102.2698 199.7269 0168976 223.5852 135.1839 13.86824838932800"}}, "geometry": {"type": "Point", "coordinates": [26.462135699845856, 18.761975296271583]}}, {"type": "Feature", "properties": {"norad_id": 31629, "name": "FENGYUN 1C DEB", "group": "fengyun-1c-debris", "lat": 72.0668323474841, "lon": -104.9958146221528, "alt_km": 819.0833227957155, "timestamp": "2025-12-13T05:42:57.843191+00:00", "meta": {"OBJECT_NAME": "FENGYUN 1C DEB", "OBJECT_ID": "1999-025CAK", "EPOCH": "2025-12-11T09:06:19.184544", "MEAN_MOTION": 14.14603971, "ECCENTRICITY": 0.01037698, "INCLINATION": 102.1333, "RA_OF_ASC_NODE": 30.8256, "ARG_OF_PERICENTER": 30.7835, "MEAN_ANOMALY": 329.9357, "EPHEMERIS_TYPE": 0, "CLASSIFICATION_TYPE": "U", "NORAD_CAT_ID": 31629, "ELEMENT_SET_NO": 999, "REV_AT_EPOCH": 94427, "BSTAR": 0.0036724115, "MEAN_MOTION_DOT": 7.369e-05, "MEAN_MOTION_DDOT": 0}, "tle": {"line1": "1 31629U 99025CAK 25345.37938871  .00007369  00000+0  36724-2 0  9999", "line2": "2 31629 102.1333  30.8256 0103769  30.7835 329.9357 14.14603971944272"}}, "geometry": {"type": "Point", "coordinates": [-104.9958146221528, 72.0668323474841]}}, {"type": "Feature", "properties": {"norad_id": 31630, "name": "FENGYUN 1C DEB", "group": "fengyun-1c-debris", "lat": -52.6920698825667, "lon": -35.9672347506394, "alt_km": 613.1948399890871, "timestamp": "2025-12-13T05:42:57.843201+00:00", "meta": {"OBJECT_NAME": "FENGYUN 1C DEB", "OBJECT_ID": "1999-025CAL", "EPOCH": "2025-12-11T04:50:43.743552", "MEAN_MOTION": 15.06197917, "ECCENTRICITY": 0.01656755, "INCLINATION": 98.0916, "RA_OF_ASC_NODE": 152.655, "ARG_OF_PERICENTER": 1.8222, "MEAN_ANOMALY": 358.3571, "EPHEMERIS_TYPE": 0, "CLASSIFICATION_TYPE": "U", "NORAD_CAT_ID": 31630, "ELEMENT_SET_NO": 999, "REV_AT_EPOCH": 98567, "BSTAR": 0.0012017161, "MEAN_MOTION_DOT": 0.00024062, "MEAN_MOTION_DDOT": 0}, "tle": {"line1": "1 31630U 99025CAL 25345.20189518  .00024062  00000+0  12017-2 0  9997", "line2": "2 31630  98.0916 152.6550 0165675   1.8222 358.3571 15.06197917985670"}}, "geometry": {"type": "Point", "coordinates": [-35.9672347506394, -52.6920698825667]}}]}